[{"OBJECT_NAME":"KORSAT-2","OBJECT_ID":"2024-247A","EPOCH":"2026-03-09T09:51:24.769440","MEAN_MOTION":14.99271316,"ECCENTRICITY":0.00097734,"INCLINATION":45.4085,"RA_OF_ASC_NODE":225.0391,"ARG_OF_PERICENTER":57.7708,"MEAN_ANOMALY":302.4117,"EPHEMERIS_TYPE":0,"CLASSIFICATION_TYPE":"U","NORAD_CAT_ID":62377,"ELEMENT_SET_NO":999,"REV_AT_EPOCH":6659,"BSTAR":0.00043497982,"MEAN_MOTION_DOT":5.163e-5,"MEAN_MOTION_DDOT":0},{"OBJECT_NAME":"STARLINK-35059","OBJECT_ID":"2025-194W","EPOCH":"2026-03-09T13:12:20.699712","MEAN_MOTION":15.01263903,"ECCENTRICITY":0.00018888,"INCLINATION":97.6037,"RA_OF_ASC_NODE":284.8767,"ARG_OF_PERICENTER":81.8838,"MEAN_ANOMALY":278.2601,"EPHEMERIS_TYPE":0,"CLASSIFICATION_TYPE":"U","NORAD_CAT_ID":65454,"ELEMENT_SET_NO":999,"REV_AT_EPOCH":2966,"BSTAR":0.00029003443,"MEAN_MOTION_DOT":3.669e-5,"MEAN_MOTION_DDOT":0}]
